{"type":"FeatureCollection", "features": [
{"type":"Feature","geometry":{"type":"Polygon","coordinates":[[[-40.316387,-9.907901],[-40.323269,-9.907476],[-40.324347,-9.912197],[-40.327173,-9.913091],[-40.330553,-9.919552],[-40.339258,-9.92187],[-40.340745,-9.9267],[-40.344235,-9.929503],[-40.347968,-9.928801],[-40.352604,-9.929689],[-40.359347,-9.932339],[-40.364731,-9.933152],[-40.372978,-9.937489],[-40.375687,-9.940172],[-40.383222,-9.944171],[-40.388449,-9.951102],[-40.391153,-9.950806],[-40.393031,-9.954159],[-40.399959,-9.961284],[-40.40469,-9.964039],[-40.408048,-9.970077],[-40.412183,-9.973513],[-40.502742,-9.971154],[-40.603419,-9.910749],[-40.643331,-9.886804],[-40.744804,-9.877614],[-40.813751,-9.87137],[-40.816578,-9.871684],[-40.818318,-9.869696],[-40.81824,-9.849876],[-40.817408,-9.842845],[-40.81975,-9.84136],[-40.82369,-9.836335],[-40.828038,-9.844035],[-40.827928,-9.851373],[-40.828931,-9.857193],[-40.831628,-9.864471],[-40.83687,-9.863337],[-40.8389,-9.860837],[-40.845649,-9.874077],[-40.85368,-9.882113],[-40.864089,-9.889393],[-40.872902,-9.89084],[-40.879185,-9.893418],[-40.884327,-9.898635],[-40.889579,-9.91043],[-40.891558,-9.913711],[-40.896426,-9.914179],[-40.898788,-9.910551],[-40.904061,-9.909716],[-40.907424,-9.906762],[-40.913361,-9.903726],[-40.912826,-9.90083],[-40.915604,-9.899034],[-40.92442,-9.896785],[-40.927597,-9.898641],[-40.930318,-9.903591],[-40.934564,-9.907932],[-40.936049,-9.911902],[-40.941588,-9.915238],[-40.94411,-9.913512],[-40.944943,-9.902317],[-40.944115,-9.893576],[-40.944566,-9.881278],[-40.95867,-9.890925],[-40.961815,-9.891144],[-40.961985,-9.884561],[-40.963384,-9.883839],[-40.974727,-9.891412],[-40.981963,-9.892728],[-40.986755,-9.897083],[-40.989882,-9.897854],[-40.993065,-9.895969],[-40.995656,-9.887288],[-40.996792,-9.886118],[-41.010645,-9.903155],[-41.013239,-9.909127],[-41.018116,-9.910817],[-41.021281,-9.909603],[-41.029597,-9.912135],[-41.032774,-9.914981],[-41.03394,-9.921596],[-41.038104,-9.926878],[-41.042593,-9.927509],[-41.046157,-9.924178],[-41.049921,-9.923094],[-41.05491,-9.918644],[-41.05438,-9.915856],[-41.058584,-9.916417],[-41.061047,-9.922269],[-41.06514,-9.926853],[-41.070249,-9.928884],[-41.074412,-9.934438],[-41.076488,-9.93984],[-41.081452,-9.941765],[-41.08354,-9.945859],[-41.086896,-9.945572],[-41.091426,-9.941998],[-41.093891,-9.942259],[-41.10024,-9.946104],[-41.104413,-9.944674],[-41.106228,-9.938487],[-41.105008,-9.923128],[-41.103521,-9.91803],[-41.105192,-9.913304],[-41.108761,-9.911108],[-41.110621,-9.907173],[-41.11269,-9.90625],[-41.118155,-9.91094],[-41.118434,-9.91496],[-41.120113,-9.917736],[-41.121183,-9.923954],[-41.122628,-9.926299],[-41.126274,-9.926568],[-41.128084,-9.929315],[-41.131551,-9.92876],[-41.132984,-9.923444],[-41.135157,-9.921919],[-41.137375,-9.92594],[-41.143662,-9.927281],[-41.146482,-9.934816],[-41.151197,-9.93819],[-41.153693,-9.937728],[-41.157081,-9.94339],[-41.167746,-9.945309],[-41.168443,-9.948311],[-41.175697,-9.952567],[-41.180135,-9.953445],[-41.181152,-9.95534],[-41.185358,-9.955664],[-41.195528,-9.95289],[-41.199319,-9.953537],[-41.206345,-9.951504],[-41.210089,-9.954693],[-41.214016,-9.955664],[-41.21522,-9.953769],[-41.214278,-9.944922],[-41.215954,-9.933481],[-41.220287,-9.9221],[-41.221848,-9.922849],[-41.225742,-9.930164],[-41.227526,-9.930565],[-41.234766,-9.926189],[-41.236814,-9.926952],[-41.233813,-9.938713],[-41.236083,-9.940034],[-41.235999,-9.942854],[-41.243702,-9.94578],[-41.24712,-9.943809],[-41.251674,-9.943033],[-41.253913,-9.946078],[-41.252183,-9.949329],[-41.248788,-9.950076],[-41.248528,-9.958584],[-41.251476,-9.961346],[-41.255556,-9.97173],[-41.255922,-9.974113],[-41.253151,-9.979413],[-41.244621,-9.985843],[-41.234491,-9.990236],[-41.228613,-9.988696],[-41.222409,-9.989909],[-41.213369,-9.994247],[-41.206707,-9.99858],[-41.201578,-9.999913],[-41.198182,-10.002443],[-41.196117,-10.005907],[-41.19212,-10.008971],[-41.188255,-10.006416],[-41.178673,-10.006733],[-41.170887,-10.012265],[-41.167273,-10.022761],[-41.169462,-10.032429],[-41.180224,-10.040655],[-41.181688,-10.043109],[-41.181728,-10.051093],[-41.186661,-10.053856],[-41.190825,-10.060056],[-41.196121,-10.061564],[-41.1974,-10.063157],[-41.193231,-10.065617],[-41.191038,-10.079612],[-41.189052,-10.081417],[-41.18965,-10.086129],[-41.185438,-10.088649],[-41.180136,-10.093751],[-41.179891,-10.102769],[-41.168471,-10.104034],[-41.166453,-10.107949],[-41.159988,-10.109754],[-41.159054,-10.114016],[-41.164374,-10.120987],[-41.164947,-10.12602],[-41.166948,-10.12997],[-41.165055,-10.13516],[-41.164327,-10.143425],[-41.161405,-10.144851],[-41.162071,-10.150132],[-41.157711,-10.155825],[-41.159318,-10.158994],[-41.158936,-10.162143],[-41.161212,-10.163823],[-41.16103,-10.168583],[-41.166795,-10.174885],[-41.165695,-10.178027],[-41.161729,-10.182033],[-41.164845,-10.187529],[-41.169436,-10.190411],[-41.171429,-10.196284],[-41.167119,-10.200537],[-41.159625,-10.203844],[-41.158688,-10.21148],[-41.15591,-10.214114],[-41.150898,-10.213937],[-41.148403,-10.218384],[-41.144,-10.223003],[-41.148607,-10.228161],[-41.149008,-10.233688],[-41.152891,-10.237258],[-41.160911,-10.23787],[-41.163636,-10.240317],[-41.164414,-10.244098],[-41.168709,-10.252562],[-41.172585,-10.254866],[-41.174101,-10.258277],[-41.178634,-10.259705],[-41.180268,-10.263686],[-41.190307,-10.267972],[-41.193451,-10.271632],[-41.199351,-10.271374],[-41.205639,-10.274647],[-41.211883,-10.281279],[-41.213218,-10.284638],[-41.212745,-10.291271],[-41.216104,-10.289462],[-41.220152,-10.289979],[-41.222405,-10.292861],[-41.233244,-10.29562],[-41.238585,-10.300056],[-41.241728,-10.305181],[-41.242027,-10.308095],[-41.238759,-10.313614],[-41.241726,-10.316971],[-41.242736,-10.323257],[-41.253334,-10.328193],[-41.257931,-10.332122],[-41.264534,-10.333073],[-41.270683,-10.339661],[-41.276197,-10.343761],[-41.277864,-10.347184],[-41.269784,-10.344909],[-41.266319,-10.34544],[-41.263299,-10.349383],[-41.260589,-10.350885],[-41.258096,-10.359614],[-41.256195,-10.361779],[-41.258492,-10.368975],[-41.258634,-10.376041],[-41.25765,-10.383965],[-41.255034,-10.38834],[-41.252457,-10.387924],[-41.25041,-10.392729],[-41.251083,-10.400117],[-41.255114,-10.404571],[-41.255787,-10.414436],[-41.251933,-10.421856],[-41.251009,-10.427936],[-41.243649,-10.43285],[-41.239005,-10.431997],[-41.232398,-10.437665],[-41.232925,-10.442324],[-41.229866,-10.448817],[-41.224881,-10.453895],[-41.217723,-10.456656],[-41.212094,-10.456843],[-41.211238,-10.453719],[-41.205495,-10.452529],[-41.201145,-10.449414],[-41.19595,-10.442961],[-41.192329,-10.442244],[-41.192738,-10.438012],[-41.186009,-10.43428],[-41.181567,-10.430912],[-41.175828,-10.430228],[-41.169842,-10.433414],[-41.162561,-10.434186],[-41.161874,-10.437806],[-41.153358,-10.444896],[-41.152859,-10.446634],[-41.149121,-10.447473],[-41.141442,-10.45152],[-41.14003,-10.450679],[-41.134451,-10.452109],[-41.129002,-10.456556],[-41.123118,-10.458692],[-41.122505,-10.457124],[-41.114917,-10.463971],[-41.106936,-10.466663],[-41.10119,-10.465146],[-41.098843,-10.46095],[-41.093022,-10.461729],[-41.079798,-10.461635],[-41.074065,-10.459178],[-41.068062,-10.460066],[-41.06095,-10.458956],[-41.05719,-10.456485],[-41.056133,-10.454124],[-41.049307,-10.45198],[-41.045021,-10.452966],[-41.038326,-10.4514],[-41.034512,-10.44911],[-41.029289,-10.443503],[-41.028666,-10.437541],[-41.024674,-10.433029],[-41.020061,-10.431486],[-41.014628,-10.43284],[-41.008954,-10.436654],[-41.007459,-10.44563],[-41.0046,-10.449697],[-40.996068,-10.452744],[-40.993884,-10.451439],[-40.967164,-10.451439],[-40.966504,-10.454951],[-40.963015,-10.462592],[-40.964683,-10.469083],[-40.966583,-10.470543],[-40.966375,-10.476078],[-40.963466,-10.478173],[-40.957021,-10.47904],[-40.957595,-10.481048],[-40.953793,-10.484459],[-40.946048,-10.486321],[-40.943115,-10.493682],[-40.946268,-10.496443],[-40.943347,-10.504073],[-40.943641,-10.507314],[-40.94119,-10.509585],[-40.934528,-10.510445],[-40.934244,-10.507],[-40.930713,-10.508501],[-40.927221,-10.512924],[-40.925138,-10.51228],[-40.922435,-10.51569],[-40.913493,-10.512992],[-40.909936,-10.516182],[-40.905566,-10.51583],[-40.900091,-10.517446],[-40.89802,-10.514537],[-40.899735,-10.513757],[-40.897656,-10.509219],[-40.894063,-10.510804],[-40.889116,-10.505454],[-40.891543,-10.500331],[-40.885275,-10.49779],[-40.882353,-10.49407],[-40.872432,-10.500545],[-40.871824,-10.504782],[-40.878195,-10.509972],[-40.876523,-10.512841],[-40.876832,-10.516668],[-40.87859,-10.518686],[-40.877856,-10.52265],[-40.880749,-10.524975],[-40.884457,-10.519689],[-40.887215,-10.521873],[-40.882661,-10.527117],[-40.883492,-10.530036],[-40.885194,-10.527795],[-40.886371,-10.531187],[-40.882595,-10.53245],[-40.884191,-10.537562],[-40.888167,-10.53601],[-40.895902,-10.540144],[-40.892294,-10.541763],[-40.895213,-10.551048],[-40.897018,-10.548651],[-40.904749,-10.546077],[-40.904063,-10.551021],[-40.90714,-10.551825],[-40.913062,-10.549979],[-40.912796,-10.556418],[-40.915539,-10.558763],[-40.914833,-10.555467],[-40.916567,-10.552897],[-40.922106,-10.558494],[-40.923077,-10.562639],[-40.919568,-10.562935],[-40.919265,-10.559564],[-40.915823,-10.563329],[-40.920158,-10.566388],[-40.920903,-10.570667],[-40.919809,-10.573584],[-40.922264,-10.577101],[-40.920447,-10.579929],[-40.924015,-10.580586],[-40.92475,-10.5839],[-40.923621,-10.587013],[-40.930684,-10.587993],[-40.930358,-10.592431],[-40.933302,-10.594056],[-40.93177,-10.598535],[-40.934689,-10.605285],[-40.912585,-10.607788],[-40.878664,-10.590636],[-40.874206,-10.595769],[-40.869501,-10.595643],[-40.864761,-10.593524],[-40.856565,-10.593434],[-40.851465,-10.595481],[-40.846021,-10.594117],[-40.843771,-10.592394],[-40.825439,-10.59413],[-40.822086,-10.592465],[-40.816591,-10.592499],[-40.812147,-10.594347],[-40.804209,-10.599129],[-40.803571,-10.606684],[-40.799573,-10.607989],[-40.796029,-10.604958],[-40.793722,-10.599132],[-40.785424,-10.597135],[-40.778375,-10.59344],[-40.767931,-10.59173],[-40.762677,-10.592521],[-40.761622,-10.595806],[-40.762918,-10.602433],[-40.754617,-10.616601],[-40.750348,-10.630333],[-40.747089,-10.633645],[-40.630991,-10.669036],[-40.59566,-10.683506],[-40.546402,-10.66232],[-40.534762,-10.650441],[-40.458391,-10.578457],[-40.384936,-10.545349],[-40.374431,-10.548825],[-40.371575,-10.543495],[-40.367256,-10.541692],[-40.285065,-10.524813],[-40.283488,-10.516018],[-40.280072,-10.512185],[-40.275027,-10.504324],[-40.270545,-10.500587],[-40.248509,-10.484003],[-40.245193,-10.483327],[-40.239439,-10.473288],[-40.236713,-10.469995],[-40.2344,-10.462794],[-40.237112,-10.457748],[-40.24014,-10.45492],[-40.244776,-10.454177],[-40.244883,-10.448693],[-40.242806,-10.445658],[-40.245744,-10.441858],[-40.249196,-10.440413],[-40.250953,-10.436313],[-40.247021,-10.435398],[-40.243978,-10.430984],[-40.243924,-10.42766],[-40.245869,-10.42461],[-40.249166,-10.423535],[-40.249344,-10.419499],[-40.246453,-10.408518],[-40.243257,-10.405351],[-40.249689,-10.405705],[-40.251287,-10.39823],[-40.250781,-10.383949],[-40.248698,-10.377723],[-40.240006,-10.374785],[-40.231546,-10.374398],[-40.231181,-10.370979],[-40.233065,-10.363992],[-40.23294,-10.360545],[-40.237061,-10.355389],[-40.236084,-10.351815],[-40.236764,-10.342608],[-40.234474,-10.33828],[-40.234197,-10.333853],[-40.235355,-10.326682],[-40.23143,-10.321123],[-40.229996,-10.314858],[-40.227304,-10.310279],[-40.228361,-10.302933],[-40.230952,-10.301021],[-40.231581,-10.294581],[-40.232889,-10.29126],[-40.238094,-10.286104],[-40.243201,-10.279186],[-40.237741,-10.272467],[-40.240258,-10.267612],[-40.247707,-10.260366],[-40.24499,-10.25873],[-40.246577,-10.252101],[-40.243398,-10.249211],[-40.241262,-10.242173],[-40.255356,-10.227552],[-40.252174,-10.224671],[-40.251324,-10.220707],[-40.249048,-10.218748],[-40.249291,-10.209624],[-40.247304,-10.206907],[-40.247304,-10.203744],[-40.253509,-10.193768],[-40.257848,-10.191172],[-40.264619,-10.18286],[-40.267946,-10.181683],[-40.269811,-10.17414],[-40.273662,-10.168627],[-40.276705,-10.167328],[-40.275698,-10.159526],[-40.281838,-10.151153],[-40.279381,-10.147619],[-40.281247,-10.142266],[-40.286965,-10.138697],[-40.288262,-10.13525],[-40.29925,-10.128398],[-40.304017,-10.127425],[-40.312198,-10.123691],[-40.328444,-10.12336],[-40.33427,-10.119864],[-40.339254,-10.115547],[-40.351005,-10.113056],[-40.357033,-10.117457],[-40.355855,-10.123421],[-40.361411,-10.127027],[-40.363256,-10.129334],[-40.361531,-10.13554],[-40.366807,-10.140395],[-40.370897,-10.140791],[-40.376695,-10.139143],[-40.379907,-10.13633],[-40.384523,-10.129803],[-40.39152,-10.127716],[-40.397991,-10.124302],[-40.403069,-10.122629],[-40.406731,-10.118271],[-40.416523,-10.112584],[-40.417206,-10.108499],[-40.41436,-10.099045],[-40.411187,-10.094976],[-40.40317,-10.089478],[-40.394238,-10.085687],[-40.394328,-10.072065],[-40.389169,-10.06465],[-40.388783,-10.06215],[-40.383513,-10.058658],[-40.374839,-10.055533],[-40.365519,-10.048381],[-40.35648,-10.043729],[-40.35148,-10.039048],[-40.346624,-10.038393],[-40.346296,-10.0358],[-40.340927,-10.031506],[-40.334219,-10.023016],[-40.32845,-10.01362],[-40.325493,-10.002442],[-40.325695,-9.997134],[-40.320263,-9.988105],[-40.31893,-9.981],[-40.319306,-9.975243],[-40.327104,-9.964512],[-40.329038,-9.959098],[-40.326173,-9.954173],[-40.320882,-9.950032],[-40.316739,-9.939047],[-40.313386,-9.927435],[-40.31437,-9.916809],[-40.316577,-9.911369],[-40.316387,-9.907901]]]},"properties":{"cd_mun":"2906006","nm_mun":"Campo Formoso","area_km2":7161.83}},
{"type":"Feature","geometry":{"type":"Polygon","coordinates":[[[-42.536818,-14.381115],[-42.534221,-14.391963],[-42.533793,-14.398459],[-42.53158,-14.40317],[-42.524248,-14.409743],[-42.521749,-14.400675],[-42.516357,-14.398007],[-42.514507,-14.395234],[-42.515507,-14.391127],[-42.513432,-14.388416],[-42.514302,-14.386556],[-42.512411,-14.380781],[-42.505374,-14.383087],[-42.504334,-14.380626],[-42.495278,-14.375408],[-42.493277,-14.377109],[-42.488124,-14.37114],[-42.487046,-14.366303],[-42.484257,-14.368552],[-42.479396,-14.363614],[-42.476631,-14.364338],[-42.471972,-14.359794],[-42.466184,-14.35698],[-42.45935,-14.350641],[-42.456358,-14.346725],[-42.454868,-14.342049],[-42.449777,-14.341569],[-42.446016,-14.338691],[-42.445035,-14.333445],[-42.441102,-14.334701],[-42.440613,-14.329605],[-42.436598,-14.330354],[-42.433662,-14.326301],[-42.436471,-14.323867],[-42.436873,-14.317858],[-42.44363,-14.311206],[-42.431342,-14.304511],[-42.347163,-14.195461],[-42.352408,-14.095414],[-42.376315,-13.990011],[-42.370555,-13.988063],[-42.364236,-13.982751],[-42.360699,-13.977093],[-42.362614,-13.972286],[-42.362952,-13.964163],[-42.360294,-13.956868],[-42.362005,-13.95268],[-42.364869,-13.950512],[-42.366651,-13.944413],[-42.359994,-13.940182],[-42.354188,-13.934287],[-42.352322,-13.930538],[-42.348551,-13.930064],[-42.35092,-13.926624],[-42.355495,-13.916605],[-42.359253,-13.910252],[-42.336712,-13.902735],[-42.278044,-13.895806],[-42.277258,-13.892441],[-42.271772,-13.888307],[-42.266091,-13.89169],[-42.259126,-13.893161],[-42.255417,-13.897325],[-42.248817,-13.898551],[-42.244637,-13.90032],[-42.242157,-13.903112],[-42.23574,-13.903728],[-42.227345,-13.908508],[-42.222229,-13.909196],[-42.220189,-13.90791],[-42.212769,-13.898716],[-42.209828,-13.892982],[-42.20657,-13.892335],[-42.200748,-13.882196],[-42.198244,-13.879873],[-42.193214,-13.880066],[-42.188729,-13.877756],[-42.184481,-13.871003],[-42.179793,-13.867293],[-42.172133,-13.866701],[-42.169845,-13.86768],[-42.163696,-13.866462],[-42.15776,-13.862808],[-42.151937,-13.860701],[-42.156517,-13.855009],[-42.162354,-13.854063],[-42.166481,-13.850301],[-42.170971,-13.84867],[-42.17348,-13.845667],[-42.181204,-13.849791],[-42.183226,-13.852357],[-42.190735,-13.853948],[-42.19276,-13.85217],[-42.197581,-13.850904],[-42.203661,-13.853307],[-42.210749,-13.852294],[-42.213582,-13.850543],[-42.217438,-13.844731],[-42.220488,-13.843485],[-42.228077,-13.836769],[-42.229514,-13.83369],[-42.233151,-13.833818],[-42.23797,-13.828354],[-42.236682,-13.825089],[-42.241637,-13.819367],[-42.245057,-13.806068],[-42.246714,-13.803836],[-42.251333,-13.801469],[-42.266684,-13.801291],[-42.270357,-13.805115],[-42.273919,-13.803553],[-42.274166,-13.797678],[-42.277363,-13.792724],[-42.285518,-13.785545],[-42.295158,-13.784024],[-42.300231,-13.778771],[-42.304232,-13.776464],[-42.308577,-13.778955],[-42.31818,-13.776038],[-42.335044,-13.772514],[-42.338826,-13.769067],[-42.316105,-13.757611],[-42.308077,-13.748272],[-42.265507,-13.728813],[-42.221256,-13.700005],[-42.170793,-13.693252],[-42.136888,-13.701136],[-42.126899,-13.700762],[-42.132422,-13.697501],[-42.136903,-13.685082],[-42.145217,-13.67985],[-42.147876,-13.679534],[-42.144913,-13.675511],[-42.144702,-13.672407],[-42.148308,-13.669331],[-42.155013,-13.671767],[-42.159433,-13.669248],[-42.15934,-13.666576],[-42.16542,-13.664889],[-42.168746,-13.665004],[-42.178676,-13.660019],[-42.183023,-13.660264],[-42.183914,-13.662227],[-42.181521,-13.664704],[-42.181395,-13.668465],[-42.187411,-13.669775],[-42.192826,-13.668356],[-42.200352,-13.663016],[-42.203149,-13.657936],[-42.207607,-13.654972],[-42.211157,-13.654464],[-42.214031,-13.65901],[-42.217687,-13.655334],[-42.218409,-13.645332],[-42.224805,-13.64257],[-42.228756,-13.637844],[-42.231649,-13.632177],[-42.234477,-13.630538],[-42.238652,-13.635438],[-42.239902,-13.638695],[-42.243016,-13.640196],[-42.24219,-13.63744],[-42.244252,-13.63173],[-42.242806,-13.626038],[-42.247158,-13.622784],[-42.247206,-13.618601],[-42.249381,-13.611893],[-42.25151,-13.609767],[-42.257365,-13.60756],[-42.25641,-13.602569],[-42.259141,-13.600272],[-42.261487,-13.600623],[-42.261152,-13.61055],[-42.270331,-13.609342],[-42.271437,-13.611755],[-42.270626,-13.616199],[-42.266439,-13.625358],[-42.270966,-13.622893],[-42.275697,-13.62433],[-42.277406,-13.61613],[-42.279846,-13.610127],[-42.300478,-13.608281],[-42.304749,-13.60601],[-42.309159,-13.601858],[-42.310539,-13.60256],[-42.314511,-13.613394],[-42.314651,-13.615847],[-42.319672,-13.611385],[-42.325203,-13.612224],[-42.334236,-13.61188],[-42.335755,-13.609721],[-42.338622,-13.612614],[-42.336054,-13.618083],[-42.335095,-13.622856],[-42.336669,-13.624741],[-42.340556,-13.624248],[-42.347909,-13.628625],[-42.355524,-13.628873],[-42.35823,-13.62769],[-42.359459,-13.631472],[-42.354543,-13.650481],[-42.354228,-13.656812],[-42.348873,-13.663453],[-42.352239,-13.664601],[-42.356284,-13.668765],[-42.357712,-13.671858],[-42.355333,-13.680781],[-42.351763,-13.691132],[-42.346684,-13.694543],[-42.354821,-13.694936],[-42.3619,-13.696626],[-42.366471,-13.698871],[-42.378351,-13.700206],[-42.383016,-13.699254],[-42.387102,-13.696421],[-42.39269,-13.686718],[-42.400257,-13.680004],[-42.402332,-13.674659],[-42.409208,-13.672759],[-42.414066,-13.668241],[-42.416807,-13.668282],[-42.426511,-13.671054],[-42.432364,-13.671176],[-42.455028,-13.665044],[-42.459968,-13.666011],[-42.469893,-13.675168],[-42.475676,-13.678168],[-42.48128,-13.67797],[-42.486695,-13.673968],[-42.492502,-13.676573],[-42.498683,-13.67791],[-42.506171,-13.673313],[-42.511828,-13.674443],[-42.5179,-13.676805],[-42.522207,-13.675455],[-42.526847,-13.671567],[-42.534611,-13.670724],[-42.538467,-13.674404],[-42.540649,-13.672931],[-42.535248,-13.664094],[-42.534539,-13.657111],[-42.536258,-13.653708],[-42.545151,-13.65144],[-42.548013,-13.647837],[-42.552476,-13.650772],[-42.558494,-13.653314],[-42.560673,-13.648081],[-42.566394,-13.638508],[-42.566822,-13.635383],[-42.569758,-13.62951],[-42.57271,-13.614247],[-42.572924,-13.606959],[-42.577384,-13.597016],[-42.579582,-13.596413],[-42.582645,-13.600674],[-42.588023,-13.60443],[-42.589391,-13.609903],[-42.595608,-13.61133],[-42.600426,-13.606571],[-42.606374,-13.602938],[-42.610704,-13.60527],[-42.621595,-13.608732],[-42.633759,-13.611531],[-42.633587,-13.616271],[-42.63585,-13.623152],[-42.638384,-13.624865],[-42.647129,-13.624294],[-42.653625,-13.626221],[-42.656445,-13.628077],[-42.663119,-13.62872],[-42.67146,-13.627022],[-42.681028,-13.619326],[-42.682113,-13.611331],[-42.68474,-13.606934],[-42.688224,-13.604536],[-42.691936,-13.596826],[-42.691079,-13.589631],[-42.692221,-13.585176],[-42.694791,-13.582435],[-42.699825,-13.565853],[-42.705849,-13.562791],[-42.708626,-13.563569],[-42.719694,-13.562738],[-42.721338,-13.567115],[-42.716127,-13.576224],[-42.718595,-13.581393],[-42.722511,-13.586371],[-42.720282,-13.590518],[-42.722141,-13.594247],[-42.721408,-13.5983],[-42.724324,-13.602629],[-42.721098,-13.607328],[-42.721988,-13.609102],[-42.716211,-13.611516],[-42.711739,-13.62155],[-42.708426,-13.623281],[-42.708424,-13.626852],[-42.710263,-13.62841],[-42.704822,-13.6331],[-42.704602,-13.63901],[-42.702955,-13.644239],[-42.703784,-13.64648],[-42.699501,-13.652991],[-42.696508,-13.654049],[-42.698218,-13.656198],[-42.694463,-13.659914],[-42.694011,-13.664251],[-42.690792,-13.669727],[-42.691397,-13.673597],[-42.688099,-13.677434],[-42.689144,-13.679926],[-42.683001,-13.686934],[-42.678976,-13.688794],[-42.677923,-13.692701],[-42.673036,-13.693786],[-42.66831,-13.697288],[-42.668224,-13.699792],[-42.664129,-13.70094],[-42.661255,-13.710579],[-42.658758,-13.713206],[-42.657503,-13.717434],[-42.657926,-13.72366],[-42.656245,-13.730352],[-42.645881,-13.743562],[-42.63928,-13.745104],[-42.63342,-13.750289],[-42.63091,-13.750967],[-42.625969,-13.755625],[-42.622303,-13.755985],[-42.618919,-13.760101],[-42.608015,-13.760157],[-42.608365,-13.763237],[-42.606354,-13.768592],[-42.607109,-13.771781],[-42.606456,-13.777281],[-42.603601,-13.782365],[-42.602174,-13.78892],[-42.594575,-13.802846],[-42.593142,-13.807383],[-42.596459,-13.814797],[-42.592318,-13.819075],[-42.589152,-13.826526],[-42.589269,-13.829859],[-42.587477,-13.834712],[-42.581006,-13.83623],[-42.575338,-13.840418],[-42.568723,-13.843215],[-42.562991,-13.852923],[-42.558805,-13.856316],[-42.558137,-13.861791],[-42.555599,-13.865105],[-42.554261,-13.873576],[-42.554798,-13.877699],[-42.553314,-13.883497],[-42.544999,-13.88981],[-42.537016,-13.89189],[-42.532645,-13.89552],[-42.5275,-13.898349],[-42.524656,-13.898114],[-42.516821,-13.904591],[-42.518328,-13.911246],[-42.512542,-13.917475],[-42.511211,-13.920597],[-42.556545,-13.946057],[-42.67303,-13.98968],[-42.79985,-14.037173],[-42.796227,-14.043569],[-42.789142,-14.052077],[-42.786237,-14.058049],[-42.786667,-14.060786],[-42.784084,-14.064946],[-42.783022,-14.073165],[-42.78136,-14.073544],[-42.776259,-14.080164],[-42.772026,-14.083198],[-42.76805,-14.081609],[-42.760163,-14.085703],[-42.756589,-14.085569],[-42.754898,-14.091343],[-42.74736,-14.092323],[-42.744517,-14.095489],[-42.736401,-14.095354],[-42.732677,-14.098592],[-42.729285,-14.099856],[-42.72738,-14.103287],[-42.720619,-14.103722],[-42.713577,-14.102787],[-42.710224,-14.10092],[-42.709504,-14.096379],[-42.702003,-14.088199],[-42.698589,-14.08256],[-42.697122,-14.077519],[-42.688801,-14.107549],[-42.676295,-14.116861],[-42.629432,-14.139857],[-42.627271,-14.138519],[-42.617854,-14.139679],[-42.612756,-14.137606],[-42.609425,-14.139026],[-42.602165,-14.140026],[-42.5997,-14.141784],[-42.60288,-14.145686],[-42.603949,-14.14996],[-42.601822,-14.156836],[-42.59978,-14.167386],[-42.597828,-14.171319],[-42.598136,-14.175337],[-42.592573,-14.183858],[-42.589292,-14.186886],[-42.584185,-14.193487],[-42.580935,-14.199311],[-42.580071,-14.203965],[-42.58118,-14.206803],[-42.581784,-14.217615],[-42.583377,-14.219374],[-42.585833,-14.228253],[-42.585502,-14.235513],[-42.586861,-14.23891],[-42.592021,-14.243572],[-42.593618,-14.242602],[-42.597308,-14.246333],[-42.599323,-14.255725],[-42.597367,-14.25608],[-42.595896,-14.259665],[-42.596942,-14.262497],[-42.592234,-14.264377],[-42.59172,-14.271396],[-42.592958,-14.273235],[-42.598594,-14.271221],[-42.600274,-14.276278],[-42.60161,-14.273924],[-42.603976,-14.275936],[-42.602487,-14.278949],[-42.609814,-14.286341],[-42.609151,-14.289826],[-42.610129,-14.295728],[-42.619612,-14.296488],[-42.566872,-14.33693],[-42.550164,-14.357468],[-42.54602,-14.359515],[-42.544172,-14.362424],[-42.544198,-14.368574],[-42.541205,-14.371745],[-42.537348,-14.37294],[-42.53474,-14.370263],[-42.531901,-14.37678],[-42.53589,-14.378259],[-42.536818,-14.381115]]]},"properties":{"cd_mun":"2905206","nm_mun":"Caetité","area_km2":2651.537}},
{"type":"Feature","geometry":{"type":"Polygon","coordinates":[[[-44.297438,-11.184143],[-44.286299,-11.175106],[-44.277586,-11.168813],[-44.271771,-11.163432],[-44.248127,-11.135111],[-44.231799,-11.101453],[-44.22644,-11.098351],[-44.224286,-11.095947],[-44.219101,-11.086897],[-44.219787,-11.080951],[-44.222543,-11.078519],[-44.220464,-11.076818],[-44.222989,-11.069455],[-44.225201,-11.065917],[-44.225609,-11.056965],[-44.223777,-11.050426],[-44.223361,-11.043602],[-44.220183,-11.037781],[-44.216404,-11.035519],[-44.219017,-11.030304],[-44.212541,-11.021383],[-44.211079,-11.015949],[-44.208503,-11.012354],[-44.204664,-11.010067],[-44.201784,-11.006194],[-44.200683,-10.998215],[-44.197571,-10.995288],[-44.190028,-10.993861],[-44.184861,-10.98937],[-44.180044,-10.98192],[-44.181402,-10.976635],[-44.177167,-10.971898],[-44.175731,-10.967546],[-44.166343,-10.96331],[-44.161608,-10.956214],[-44.164269,-10.947704],[-44.158933,-10.94564],[-44.159335,-10.942293],[-44.157138,-10.937044],[-44.151296,-10.933574],[-44.150128,-10.929007],[-44.150908,-10.926107],[-44.146771,-10.922601],[-44.148807,-10.915014],[-44.14759,-10.911726],[-44.150349,-10.910304],[-44.148314,-10.906446],[-44.149992,-10.903233],[-44.14856,-10.900911],[-44.149414,-10.896464],[-44.148243,-10.893653],[-44.142627,-10.889365],[-44.140161,-10.883993],[-44.141447,-10.879522],[-44.140693,-10.876685],[-44.143109,-10.872352],[-44.144077,-10.861732],[-44.14245,-10.856578],[-44.140225,-10.855183],[-44.138308,-10.849001],[-44.13768,-10.843068],[-44.138994,-10.834682],[-44.134934,-10.829057],[-44.128645,-10.827959],[-44.123824,-10.828535],[-44.11924,-10.824309],[-44.120017,-10.820639],[-44.119105,-10.817252],[-44.119996,-10.811638],[-44.118185,-10.809387],[-44.108213,-10.80832],[-44.111421,-10.798195],[-44.114469,-10.786715],[-44.117453,-10.778738],[-44.119982,-10.769659],[-44.126759,-10.748062],[-44.131721,-10.734605],[-44.136779,-10.722963],[-44.142584,-10.705906],[-44.14667,-10.696632],[-44.148421,-10.691022],[-44.154821,-10.673994],[-44.158842,-10.666244],[-44.160982,-10.657975],[-44.162636,-10.655024],[-44.164838,-10.644058],[-44.173725,-10.635904],[-44.176094,-10.632835],[-44.183371,-10.629513],[-44.192985,-10.628579],[-44.202071,-10.621314],[-44.208647,-10.615324],[-44.214096,-10.614447],[-44.218377,-10.61518],[-44.231349,-10.624037],[-44.23735,-10.62655],[-44.245156,-10.627768],[-44.257471,-10.626702],[-44.266655,-10.623153],[-44.273394,-10.616137],[-44.2798,-10.610921],[-44.290182,-10.596712],[-44.29306,-10.59008],[-44.298847,-10.579321],[-44.301761,-10.572043],[-44.306099,-10.565536],[-44.314547,-10.557363],[-44.322738,-10.552331],[-44.3331,-10.548766],[-44.336843,-10.548536],[-44.344612,-10.549701],[-44.349285,-10.552481],[-44.354761,-10.558007],[-44.37252,-10.57992],[-44.376538,-10.583637],[-44.392256,-10.600704],[-44.398074,-10.605878],[-44.405173,-10.609627],[-44.416936,-10.61268],[-44.423648,-10.613267],[-44.428223,-10.612405],[-44.440921,-10.607288],[-44.451752,-10.606637],[-44.459044,-10.609948],[-44.463632,-10.615257],[-44.467401,-10.622524],[-44.472956,-10.635109],[-44.476737,-10.639305],[-44.480359,-10.64152],[-44.500505,-10.649702],[-44.504515,-10.650739],[-44.514598,-10.65112],[-44.522265,-10.649804],[-44.52747,-10.646954],[-44.534298,-10.640687],[-44.54681,-10.630129],[-44.556733,-10.627331],[-44.567682,-10.626221],[-44.577779,-10.626769],[-44.584904,-10.629351],[-44.589515,-10.632419],[-44.595306,-10.640784],[-44.600982,-10.653484],[-44.612763,-10.666757],[-44.618476,-10.671067],[-44.626999,-10.675578],[-44.636338,-10.67744],[-44.64492,-10.677703],[-44.655257,-10.676696],[-44.66421,-10.679848],[-44.666622,-10.682342],[-44.668797,-10.687087],[-44.669584,-10.692065],[-44.669544,-10.70178],[-44.665269,-10.715897],[-44.663454,-10.720495],[-44.661482,-10.730505],[-44.661545,-10.739347],[-44.662783,-10.750562],[-44.664489,-10.7556],[-44.667685,-10.760057],[-44.671677,-10.763061],[-44.680688,-10.767916],[-44.687211,-10.769205],[-44.693019,-10.768062],[-44.709891,-10.761537],[-44.714574,-10.761725],[-44.730802,-10.771891],[-44.739475,-10.774371],[-44.746087,-10.77758],[-44.757449,-10.787663],[-44.759258,-10.792002],[-44.758499,-10.803465],[-44.760627,-10.805444],[-44.766238,-10.804147],[-44.778173,-10.804028],[-44.785319,-10.806344],[-44.788062,-10.808522],[-44.792715,-10.817723],[-44.797793,-10.823288],[-44.801509,-10.828592],[-44.804853,-10.839009],[-44.810323,-10.846584],[-44.810493,-10.849427],[-44.808623,-10.853309],[-44.807643,-10.859063],[-44.808329,-10.866149],[-44.811143,-10.870427],[-44.81439,-10.872688],[-44.822174,-10.875155],[-44.831109,-10.882982],[-44.840741,-10.896804],[-44.847149,-10.901088],[-44.850734,-10.898836],[-44.852886,-10.894532],[-44.855024,-10.884494],[-44.859663,-10.883179],[-44.863801,-10.885226],[-44.868703,-10.890116],[-44.87845,-10.896838],[-44.88443,-10.902311],[-44.886904,-10.902672],[-44.893235,-10.901143],[-44.897445,-10.902939],[-44.899999,-10.908358],[-44.902687,-10.910886],[-44.909984,-10.911956],[-44.912962,-10.916069],[-44.920945,-10.921801],[-44.928426,-10.927947],[-44.931218,-10.928756],[-44.939956,-10.923486],[-44.944582,-10.919177],[-44.946975,-10.923631],[-44.951067,-10.926772],[-44.953637,-10.930674],[-44.957349,-10.929817],[-44.960109,-10.930864],[-44.965154,-10.937241],[-44.967343,-10.943618],[-44.968485,-10.953136],[-44.972673,-10.954849],[-44.978193,-10.955515],[-44.980478,-10.969316],[-44.975528,-10.97103],[-44.974005,-10.973409],[-44.973815,-10.978453],[-44.975909,-10.983212],[-44.975338,-10.991398],[-44.972459,-10.996894],[-44.970032,-11.004818],[-44.971043,-11.008182],[-44.970729,-11.013531],[-44.975413,-11.021273],[-44.973403,-11.024066],[-44.976473,-11.028881],[-44.977557,-11.034659],[-44.976244,-11.041206],[-44.972228,-11.048186],[-44.967062,-11.051819],[-44.967727,-11.05457],[-44.962561,-11.060302],[-44.959579,-11.066479],[-44.959314,-11.069626],[-44.962284,-11.073907],[-44.96141,-11.076695],[-44.963596,-11.079789],[-44.967802,-11.082075],[-44.975272,-11.088252],[-44.975273,-11.092517],[-44.977633,-11.093099],[-44.983962,-11.097793],[-44.98301,-11.100138],[-44.986886,-11.102188],[-44.993181,-11.108806],[-44.994399,-11.11208],[-44.99987,-11.113491],[-45.005748,-11.117759],[-45.008441,-11.121621],[-45.007607,-11.126489],[-45.001609,-11.134184],[-44.998778,-11.134866],[-44.991891,-11.142534],[-44.990536,-11.146109],[-44.985722,-11.152472],[-44.983001,-11.159298],[-44.981705,-11.164936],[-44.982851,-11.168992],[-44.979849,-11.173925],[-44.978998,-11.181846],[-44.977249,-11.188788],[-44.972003,-11.191507],[-44.96035,-11.192811],[-44.956633,-11.195564],[-44.952047,-11.195782],[-44.941885,-11.201102],[-44.946382,-11.209454],[-44.949023,-11.211024],[-44.955448,-11.211524],[-44.959517,-11.214593],[-44.963086,-11.224444],[-44.961158,-11.228585],[-44.95866,-11.230797],[-44.957113,-11.236104],[-44.959493,-11.243813],[-44.958636,-11.248667],[-44.955495,-11.25276],[-44.958446,-11.25809],[-44.958541,-11.261992],[-44.956685,-11.264348],[-44.958612,-11.268774],[-44.956114,-11.27427],[-44.95126,-11.282337],[-44.950617,-11.292544],[-44.956043,-11.299611],[-44.957756,-11.303538],[-44.959041,-11.312532],[-44.966251,-11.316672],[-44.967892,-11.320527],[-44.972104,-11.322597],[-44.976887,-11.32995],[-44.979242,-11.337588],[-44.990378,-11.345797],[-44.990949,-11.351222],[-44.993234,-11.357861],[-44.992948,-11.361715],[-44.988165,-11.368997],[-44.982455,-11.382916],[-44.979385,-11.386129],[-44.97446,-11.386414],[-44.96733,-11.380258],[-44.964705,-11.374992],[-44.966552,-11.374234],[-44.965656,-11.362628],[-44.963119,-11.357389],[-44.959806,-11.353671],[-44.959025,-11.350816],[-44.953717,-11.348965],[-44.95085,-11.349293],[-44.944402,-11.341043],[-44.940912,-11.339888],[-44.939284,-11.342719],[-44.933101,-11.343084],[-44.926516,-11.344685],[-44.921346,-11.349516],[-44.916594,-11.351189],[-44.913539,-11.350905],[-44.911491,-11.353692],[-44.909094,-11.353665],[-44.900352,-11.348941],[-44.896236,-11.35012],[-44.888867,-11.354412],[-44.875948,-11.349536],[-44.872455,-11.34644],[-44.868889,-11.347842],[-44.867266,-11.350609],[-44.856634,-11.358594],[-44.850911,-11.366602],[-44.849712,-11.372543],[-44.845646,-11.376403],[-44.839264,-11.385105],[-44.835573,-11.385733],[-44.833522,-11.387804],[-44.828292,-11.388519],[-44.824769,-11.385729],[-44.819252,-11.38425],[-44.814075,-11.387021],[-44.811741,-11.390364],[-44.801466,-11.399523],[-44.798761,-11.4045],[-44.79603,-11.411745],[-44.792729,-11.416931],[-44.785627,-11.420552],[-44.780295,-11.420311],[-44.771022,-11.421917],[-44.767244,-11.42139],[-44.760257,-11.417818],[-44.75533,-11.41256],[-44.744444,-11.407206],[-44.742077,-11.407151],[-44.734584,-11.402807],[-44.725324,-11.401701],[-44.717074,-11.398962],[-44.713183,-11.39679],[-44.710201,-11.398542],[-44.706779,-11.39835],[-44.698621,-11.404995],[-44.696176,-11.405094],[-44.693705,-11.410346],[-44.684803,-11.40784],[-44.681182,-11.411554],[-44.675846,-11.409769],[-44.672051,-11.412537],[-44.669183,-11.410637],[-44.661806,-11.411586],[-44.65732,-11.410846],[-44.6503,-11.408339],[-44.645791,-11.405247],[-44.643086,-11.405433],[-44.638724,-11.409042],[-44.632569,-11.406926],[-44.629583,-11.404433],[-44.623476,-11.405163],[-44.621377,-11.408222],[-44.615852,-11.406296],[-44.608665,-11.408613],[-44.598027,-11.40724],[-44.596134,-11.405336],[-44.582129,-11.404849],[-44.578701,-11.405676],[-44.572338,-11.404053],[-44.560202,-11.403782],[-44.555085,-11.402839],[-44.552105,-11.404352],[-44.54805,-11.408406],[-44.545363,-11.409336],[-44.541304,-11.417858],[-44.538932,-11.417016],[-44.531334,-11.418713],[-44.527711,-11.416689],[-44.523196,-11.415858],[-44.516283,-11.416095],[-44.509172,-11.411689],[-44.505044,-11.406613],[-44.500917,-11.404524],[-44.497613,-11.39945],[-44.495849,-11.402684],[-44.472482,-11.374932],[-44.457414,-11.356284],[-44.445388,-11.342124],[-44.423592,-11.315737],[-44.392074,-11.278007],[-44.365785,-11.246281],[-44.352256,-11.229404],[-44.346788,-11.224084],[-44.332691,-11.21254],[-44.297438,-11.184143]]]},"properties":{"cd_mun":"2928406","nm_mun":"Santaluz","area_km2":6030.491}},
{"type":"Feature","geometry":{"type":"Polygon","coordinates":[[[-40.51895,-13.716673],[-40.514176,-13.714208],[-40.507089,-13.715447],[-40.504806,-13.714633],[-40.498771,-13.71644],[-40.497113,-13.712843],[-40.49133,-13.710057],[-40.48146,-13.699891],[-40.478337,-13.686426],[-40.475706,-13.683151],[-40.474114,-13.678511],[-40.477307,-13.676333],[-40.487129,-13.676618],[-40.488288,-13.672513],[-40.49971,-13.652882],[-40.499636,-13.650577],[-40.493411,-13.647094],[-40.485552,-13.64729],[-40.481388,-13.641936],[-40.474844,-13.642531],[-40.46071,-13.65001],[-40.458802,-13.652649],[-40.450709,-13.65664],[-40.446847,-13.648212],[-40.448274,-13.642025],[-40.450035,-13.639313],[-40.449979,-13.635512],[-40.447005,-13.631348],[-40.442484,-13.630991],[-40.428207,-13.631705],[-40.422258,-13.626708],[-40.42249,-13.620978],[-40.420825,-13.617742],[-40.426274,-13.609913],[-40.43363,-13.605892],[-40.437225,-13.602176],[-40.439265,-13.597968],[-40.439308,-13.593301],[-40.441921,-13.590131],[-40.439789,-13.583489],[-40.436077,-13.581455],[-40.427767,-13.585773],[-40.425772,-13.589098],[-40.418837,-13.584888],[-40.407996,-13.575447],[-40.402921,-13.574016],[-40.359593,-13.508778],[-40.350094,-13.499249],[-40.346811,-13.497962],[-40.332409,-13.486782],[-40.329167,-13.485534],[-40.326835,-13.480606],[-40.325245,-13.471401],[-40.320301,-13.468219],[-40.315324,-13.461366],[-40.312814,-13.456575],[-40.313621,-13.448627],[-40.312178,-13.443105],[-40.312148,-13.437532],[-40.309653,-13.433261],[-40.305107,-13.429845],[-40.304096,-13.423418],[-40.301565,-13.418924],[-40.297662,-13.414913],[-40.298383,-13.407916],[-40.295887,-13.402315],[-40.294578,-13.393828],[-40.291168,-13.387445],[-40.291514,-13.382657],[-40.28716,-13.378888],[-40.288834,-13.372137],[-40.287701,-13.36744],[-40.291574,-13.364371],[-40.28992,-13.356041],[-40.284978,-13.349448],[-40.277832,-13.345598],[-40.406051,-13.290201],[-40.503281,-13.205202],[-40.52542,-13.183426],[-40.584796,-13.215326],[-40.627258,-13.182574],[-40.71973,-13.239041],[-40.720231,-13.246184],[-40.719349,-13.252227],[-40.720309,-13.253791],[-40.721039,-13.265072],[-40.724446,-13.276685],[-40.731231,-13.278232],[-40.733824,-13.282422],[-40.736129,-13.28884],[-40.746187,-13.313023],[-40.783592,-13.367453],[-40.784564,-13.373208],[-40.780214,-13.375101],[-40.776469,-13.380264],[-40.774921,-13.386961],[-40.769236,-13.392167],[-40.771637,-13.393843],[-40.771444,-13.398171],[-40.768979,-13.397749],[-40.767515,-13.400975],[-40.764907,-13.399989],[-40.764122,-13.40513],[-40.756789,-13.408687],[-40.753541,-13.413955],[-40.747164,-13.416905],[-40.743368,-13.417092],[-40.740926,-13.421992],[-40.735493,-13.426215],[-40.730736,-13.426195],[-40.727317,-13.431931],[-40.729002,-13.438713],[-40.728673,-13.442514],[-40.731771,-13.448286],[-40.736335,-13.448891],[-40.73599,-13.451162],[-40.738453,-13.458077],[-40.736785,-13.465079],[-40.730367,-13.471763],[-40.724585,-13.472659],[-40.72236,-13.475073],[-40.72158,-13.480488],[-40.718657,-13.481677],[-40.71641,-13.485042],[-40.710722,-13.486413],[-40.705917,-13.497897],[-40.70095,-13.502987],[-40.699386,-13.506174],[-40.696651,-13.507873],[-40.699655,-13.511562],[-40.69493,-13.516634],[-40.696451,-13.519403],[-40.697079,-13.528447],[-40.696481,-13.533526],[-40.6933,-13.545168],[-40.686917,-13.548679],[-40.689568,-13.551054],[-40.69046,-13.55497],[-40.687092,-13.556296],[-40.686805,-13.565949],[-40.689819,-13.56797],[-40.691388,-13.573012],[-40.686741,-13.576881],[-40.684232,-13.580618],[-40.684522,-13.584187],[-40.68973,-13.584715],[-40.692879,-13.593822],[-40.689979,-13.598579],[-40.689252,-13.603274],[-40.690432,-13.610775],[-40.694376,-13.614055],[-40.694546,-13.618027],[-40.699157,-13.620146],[-40.70259,-13.626653],[-40.704664,-13.626307],[-40.709653,-13.629245],[-40.710126,-13.631367],[-40.706876,-13.631584],[-40.708829,-13.635544],[-40.703101,-13.635338],[-40.703123,-13.641005],[-40.70139,-13.645883],[-40.703488,-13.650301],[-40.702495,-13.655888],[-40.707355,-13.65907],[-40.707408,-13.663179],[-40.712077,-13.66584],[-40.713419,-13.669477],[-40.710532,-13.673056],[-40.711685,-13.676515],[-40.709817,-13.677142],[-40.70672,-13.682361],[-40.711228,-13.682477],[-40.713358,-13.68415],[-40.717867,-13.683656],[-40.717557,-13.686419],[-40.722864,-13.689257],[-40.724945,-13.69156],[-40.723934,-13.69956],[-40.721021,-13.704031],[-40.721188,-13.707131],[-40.718081,-13.71],[-40.722647,-13.714538],[-40.722852,-13.717069],[-40.72537,-13.718697],[-40.725995,-13.7223],[-40.721108,-13.722517],[-40.718814,-13.726674],[-40.717281,-13.732418],[-40.721617,-13.733565],[-40.722132,-13.736592],[-40.719546,-13.74338],[-40.715499,-13.745819],[-40.718352,-13.749479],[-40.723242,-13.747763],[-40.727973,-13.751101],[-40.724071,-13.755152],[-40.723985,-13.759446],[-40.719417,-13.761224],[-40.714114,-13.760204],[-40.709832,-13.764437],[-40.702906,-13.765174],[-40.704767,-13.76845],[-40.703083,-13.776355],[-40.700076,-13.779821],[-40.697507,-13.780365],[-40.700172,-13.794516],[-40.704339,-13.796173],[-40.701073,-13.797497],[-40.700068,-13.803944],[-40.694349,-13.80999],[-40.688491,-13.810302],[-40.67832,-13.825331],[-40.674592,-13.826643],[-40.67201,-13.830996],[-40.667966,-13.833302],[-40.665819,-13.836159],[-40.661772,-13.83527],[-40.658194,-13.836467],[-40.655621,-13.839436],[-40.651837,-13.836623],[-40.648042,-13.835688],[-40.643812,-13.838656],[-40.634744,-13.849281],[-40.628269,-13.852575],[-40.616394,-13.854771],[-40.612549,-13.858559],[-40.61009,-13.865258],[-40.605319,-13.866965],[-40.60066,-13.866054],[-40.592883,-13.866497],[-40.586652,-13.870301],[-40.575676,-13.872331],[-40.55691,-13.872765],[-40.55097,-13.872176],[-40.543725,-13.868302],[-40.534966,-13.866005],[-40.530325,-13.86768],[-40.529134,-13.869648],[-40.529637,-13.88509],[-40.52765,-13.887924],[-40.520919,-13.889142],[-40.510007,-13.88874],[-40.505425,-13.886685],[-40.500004,-13.880631],[-40.495154,-13.878939],[-40.491797,-13.880076],[-40.4839,-13.880447],[-40.47472,-13.876196],[-40.467262,-13.873499],[-40.45927,-13.872248],[-40.450327,-13.868758],[-40.443888,-13.867685],[-40.439729,-13.864633],[-40.446519,-13.857477],[-40.455197,-13.84961],[-40.456232,-13.845948],[-40.458196,-13.845742],[-40.459259,-13.842438],[-40.463041,-13.841331],[-40.463333,-13.839166],[-40.467803,-13.836627],[-40.472496,-13.832022],[-40.483653,-13.826049],[-40.485009,-13.823202],[-40.490505,-13.818799],[-40.493066,-13.81788],[-40.496539,-13.810772],[-40.503206,-13.806076],[-40.505327,-13.802156],[-40.507316,-13.801432],[-40.511389,-13.792029],[-40.51536,-13.789268],[-40.519168,-13.788957],[-40.520835,-13.785019],[-40.522246,-13.775883],[-40.525704,-13.771461],[-40.528228,-13.764643],[-40.528417,-13.75221],[-40.529926,-13.751599],[-40.530267,-13.747046],[-40.532313,-13.739842],[-40.537478,-13.735699],[-40.537597,-13.728785],[-40.533695,-13.721047],[-40.529892,-13.717924],[-40.522233,-13.717811],[-40.51895,-13.716673]]]},"properties":{"cd_mun":"2920502","nm_mun":"Maracás","area_km2":2413.27}},
{"type":"Feature","geometry":{"type":"Polygon","coordinates":[[[-41.552288,-14.487897],[-41.557813,-14.484159],[-41.556365,-14.482604],[-41.559279,-14.480044],[-41.557915,-14.475324],[-41.555995,-14.474348],[-41.556924,-14.470177],[-41.561072,-14.465457],[-41.559084,-14.462372],[-41.561296,-14.461701],[-41.562593,-14.456752],[-41.560523,-14.456206],[-41.55737,-14.452025],[-41.554318,-14.450167],[-41.556792,-14.447965],[-41.556562,-14.445146],[-41.558595,-14.441987],[-41.557348,-14.438086],[-41.557413,-14.432908],[-41.553525,-14.427222],[-41.550782,-14.428534],[-41.551413,-14.42489],[-41.558253,-14.422174],[-41.557796,-14.419159],[-41.560029,-14.415841],[-41.560234,-14.408327],[-41.562491,-14.40364],[-41.565194,-14.403162],[-41.56277,-14.395846],[-41.5654,-14.394116],[-41.569038,-14.386629],[-41.56858,-14.380116],[-41.565705,-14.375495],[-41.567367,-14.372401],[-41.566665,-14.368036],[-41.562049,-14.364526],[-41.560961,-14.359395],[-41.563324,-14.357704],[-41.560418,-14.347913],[-41.563794,-14.348609],[-41.565188,-14.346329],[-41.56275,-14.343898],[-41.565003,-14.343607],[-41.565727,-14.340218],[-41.564464,-14.337364],[-41.566119,-14.334579],[-41.563982,-14.33275],[-41.564008,-14.329561],[-41.560662,-14.331369],[-41.561581,-14.32772],[-41.556138,-14.320151],[-41.557456,-14.317431],[-41.562034,-14.315243],[-41.56742,-14.309221],[-41.571088,-14.309249],[-41.570584,-14.304748],[-41.566025,-14.296298],[-41.561932,-14.292304],[-41.558917,-14.286191],[-41.558408,-14.281456],[-41.560762,-14.278233],[-41.556603,-14.274711],[-41.550779,-14.266978],[-41.555582,-14.260517],[-41.561179,-14.26028],[-41.561804,-14.258643],[-41.566854,-14.255824],[-41.564292,-14.255828],[-41.567118,-14.252374],[-41.563226,-14.246008],[-41.558509,-14.246074],[-41.556223,-14.248156],[-41.551718,-14.24836],[-41.549609,-14.250102],[-41.546135,-14.246001],[-41.545474,-14.241369],[-41.541914,-14.237897],[-41.537176,-14.237778],[-41.537791,-14.234304],[-41.541178,-14.228016],[-41.539804,-14.224068],[-41.537727,-14.224004],[-41.532084,-14.21937],[-41.532113,-14.215032],[-41.533732,-14.214013],[-41.530023,-14.208352],[-41.530844,-14.20389],[-41.52966,-14.201467],[-41.530834,-14.19809],[-41.526326,-14.193141],[-41.524317,-14.193481],[-41.523295,-14.189235],[-41.518596,-14.185488],[-41.514704,-14.17536],[-41.512255,-14.175702],[-41.512744,-14.171242],[-41.506622,-14.173758],[-41.504338,-14.172082],[-41.503143,-14.175523],[-41.500504,-14.175523],[-41.499511,-14.178028],[-41.497068,-14.176713],[-41.494477,-14.172437],[-41.498352,-14.169253],[-41.498681,-14.164252],[-41.49644,-14.16281],[-41.49728,-14.159213],[-41.490731,-14.161554],[-41.488406,-14.161399],[-41.489411,-14.155101],[-41.494806,-14.150699],[-41.493163,-14.148316],[-41.486407,-14.14591],[-41.480415,-14.142283],[-41.477291,-14.146585],[-41.470318,-14.148072],[-41.468186,-14.142282],[-41.462761,-14.134885],[-41.457217,-14.134437],[-41.454286,-14.136185],[-41.450493,-14.134909],[-41.450261,-14.132587],[-41.446947,-14.127669],[-41.443086,-14.124726],[-41.443378,-14.119342],[-41.439459,-14.115895],[-41.433938,-14.113904],[-41.429556,-14.110714],[-41.415462,-14.105625],[-41.409087,-14.10478],[-41.402058,-14.101996],[-41.39715,-14.102903],[-41.386241,-14.100459],[-41.380335,-14.102271],[-41.371115,-14.103011],[-41.365734,-14.101212],[-41.360875,-14.097022],[-41.353873,-14.093673],[-41.344849,-14.092408],[-41.338403,-14.093432],[-41.329426,-14.093159],[-41.324111,-14.087114],[-41.318401,-14.085329],[-41.322045,-14.079199],[-41.32574,-14.080556],[-41.328037,-14.079353],[-41.327009,-14.075607],[-41.331721,-14.071667],[-41.340981,-14.070446],[-41.344006,-14.069339],[-41.346704,-14.06333],[-41.35272,-14.059364],[-41.354945,-14.055678],[-41.359381,-14.052293],[-41.363071,-14.051556],[-41.367499,-14.054019],[-41.37663,-14.05118],[-41.37694,-14.04506],[-41.382064,-14.044202],[-41.384945,-14.045413],[-41.385369,-14.048965],[-41.390182,-14.05005],[-41.388709,-14.046454],[-41.38957,-14.044343],[-41.397927,-14.042563],[-41.402959,-14.038256],[-41.405889,-14.03882],[-41.405484,-14.042272],[-41.409445,-14.042422],[-41.411105,-14.037609],[-41.415823,-14.034975],[-41.417562,-14.032425],[-41.416752,-14.030088],[-41.421385,-14.029827],[-41.423129,-14.027761],[-41.426492,-14.027459],[-41.426226,-14.023096],[-41.433875,-14.022561],[-41.439183,-14.023532],[-41.442131,-14.020645],[-41.440045,-14.016463],[-41.450698,-14.012826],[-41.448483,-14.006812],[-41.45037,-14.003964],[-41.456179,-14.005468],[-41.458932,-14.004955],[-41.463803,-14.001241],[-41.459333,-13.994696],[-41.460758,-13.993196],[-41.466301,-13.991593],[-41.467512,-13.989083],[-41.465725,-13.986181],[-41.466233,-13.982706],[-41.470163,-13.97877],[-41.465943,-13.972346],[-41.466736,-13.970573],[-41.470439,-13.972423],[-41.475199,-13.970442],[-41.472638,-13.968401],[-41.466799,-13.961333],[-41.469079,-13.960238],[-41.47617,-13.96002],[-41.478489,-13.956394],[-41.475772,-13.952603],[-41.481909,-13.949689],[-41.475133,-13.946226],[-41.473265,-13.943093],[-41.474029,-13.938799],[-41.475981,-13.938286],[-41.480422,-13.940436],[-41.484105,-13.936458],[-41.479571,-13.931193],[-41.479841,-13.929307],[-41.484919,-13.931139],[-41.48777,-13.930713],[-41.487772,-13.92325],[-41.489187,-13.921217],[-41.493589,-13.922402],[-41.497301,-13.926785],[-41.500725,-13.925872],[-41.501734,-13.920851],[-41.49677,-13.919124],[-41.493885,-13.916493],[-41.559163,-13.944305],[-41.660439,-14.001044],[-41.664974,-13.997949],[-41.673594,-13.995759],[-41.682245,-13.99673],[-41.685333,-13.994424],[-41.691911,-13.992383],[-41.695734,-13.990113],[-41.697978,-13.985334],[-41.703083,-13.981437],[-41.717628,-13.977445],[-41.720925,-13.977894],[-41.72824,-13.982781],[-41.739871,-13.986823],[-41.742804,-13.985483],[-41.748209,-13.98738],[-41.753801,-13.990479],[-41.75896,-13.990545],[-41.763783,-13.989151],[-41.765414,-13.987158],[-41.767978,-13.987739],[-41.767723,-13.98374],[-41.771987,-13.98359],[-41.777197,-13.988726],[-41.78468,-13.992801],[-41.786199,-13.989083],[-41.789811,-13.989254],[-41.79376,-13.987222],[-41.797583,-13.98999],[-41.801811,-13.987313],[-41.806244,-13.986594],[-41.803732,-13.983312],[-41.803216,-13.97855],[-41.800816,-13.977576],[-41.805605,-13.976579],[-41.807529,-13.973959],[-41.811153,-13.978165],[-41.817907,-13.97612],[-41.820547,-13.978305],[-41.829836,-13.974335],[-41.833674,-13.975469],[-41.836268,-13.974037],[-41.837524,-13.977133],[-41.836992,-13.98212],[-41.84547,-13.985099],[-41.843452,-13.987816],[-41.845648,-13.992035],[-41.845341,-13.995978],[-41.842216,-13.995214],[-41.840424,-13.998226],[-41.840298,-14.003779],[-41.847579,-14.006294],[-41.85297,-14.00504],[-41.855773,-14.002579],[-41.858081,-14.005905],[-41.861695,-14.00504],[-41.863979,-14.010137],[-41.867794,-14.014209],[-41.873648,-14.018753],[-41.874347,-14.023302],[-41.879584,-14.026952],[-41.880981,-14.030851],[-41.878059,-14.036717],[-41.880548,-14.039076],[-41.887465,-14.036533],[-41.892902,-14.031255],[-41.898633,-14.03607],[-41.896591,-14.044187],[-41.899698,-14.044016],[-41.899167,-14.049886],[-41.899965,-14.05367],[-41.906106,-14.055327],[-41.911706,-14.052269],[-41.914785,-14.053443],[-41.921336,-14.053641],[-41.929468,-14.054909],[-41.937128,-14.052861],[-41.947396,-14.053167],[-41.953321,-14.056915],[-41.959738,-14.057659],[-41.964277,-14.060042],[-41.966855,-14.059922],[-41.970573,-14.056785],[-41.975198,-14.056603],[-41.980296,-14.060416],[-41.981769,-14.062796],[-41.980512,-14.068218],[-41.98224,-14.071662],[-41.994467,-14.073616],[-42.00475,-14.071955],[-42.006124,-14.070545],[-42.013897,-14.070932],[-42.017521,-14.068476],[-42.017902,-14.062075],[-42.020229,-14.059947],[-42.0293,-14.057768],[-42.03212,-14.06115],[-42.035802,-14.060514],[-42.036315,-14.063783],[-42.040676,-14.063961],[-42.049217,-14.058964],[-42.0515,-14.053996],[-42.05475,-14.052295],[-42.055688,-14.057187],[-42.063544,-14.059728],[-42.067435,-14.058315],[-42.064093,-14.05611],[-42.067424,-14.052965],[-42.070827,-14.053832],[-42.073758,-14.051475],[-42.076144,-14.053349],[-42.080806,-14.053048],[-42.083014,-14.056385],[-42.08699,-14.056858],[-42.015992,-14.118862],[-41.994286,-14.167277],[-41.979641,-14.226333],[-41.973536,-14.229451],[-41.968509,-14.23398],[-41.958697,-14.235395],[-41.956247,-14.23507],[-41.946718,-14.230297],[-41.927956,-14.227727],[-41.92298,-14.228009],[-41.91598,-14.23302],[-41.899823,-14.233265],[-41.845128,-14.252798],[-41.835061,-14.254486],[-41.802231,-14.260599],[-41.799052,-14.260957],[-41.763681,-14.255839],[-41.728897,-14.402916],[-41.723447,-14.414945],[-41.723481,-14.421391],[-41.718579,-14.423866],[-41.717859,-14.435181],[-41.719008,-14.441521],[-41.720864,-14.446376],[-41.718484,-14.449041],[-41.709204,-14.449136],[-41.703184,-14.454199],[-41.696599,-14.457322],[-41.698167,-14.462136],[-41.695784,-14.467933],[-41.693923,-14.475491],[-41.676511,-14.477411],[-41.67476,-14.480983],[-41.667591,-14.485895],[-41.661942,-14.487378],[-41.660768,-14.491197],[-41.65513,-14.490172],[-41.6536,-14.494155],[-41.649679,-14.495667],[-41.647408,-14.500346],[-41.642792,-14.505344],[-41.637625,-14.5092],[-41.531832,-14.498456],[-41.533567,-14.496639],[-41.536426,-14.488503],[-41.541514,-14.486582],[-41.545818,-14.488518],[-41.552288,-14.487897]]]},"properties":{"cd_mun":"2904605","nm_mun":"Brumado","area_km2":2207.613}},
{"type":"Feature","geometry":{"type":"Polygon","coordinates":[[[-38.314715,-12.440995],[-38.322367,-12.457286],[-38.287807,-12.44666],[-38.262323,-12.416915],[-38.259353,-12.415483],[-38.248999,-12.416975],[-38.245421,-12.416715],[-38.241284,-12.414696],[-38.237046,-12.417111],[-38.229826,-12.415301],[-38.227663,-12.415952],[-38.224609,-12.413034],[-38.226509,-12.411816],[-38.220862,-12.409434],[-38.219697,-12.410693],[-38.211121,-12.411921],[-38.20392,-12.409014],[-38.202776,-12.405539],[-38.198819,-12.403797],[-38.19005,-12.403389],[-38.187298,-12.407953],[-38.186998,-12.412306],[-38.183432,-12.412607],[-38.17749,-12.408454],[-38.177719,-12.403987],[-38.176473,-12.400679],[-38.172392,-12.400593],[-38.16834,-12.398388],[-38.165089,-12.394736],[-38.163629,-12.395567],[-38.160038,-12.393206],[-38.158523,-12.383852],[-38.151851,-12.380147],[-38.145348,-12.373611],[-38.142699,-12.372223],[-38.146049,-12.368667],[-38.143581,-12.366067],[-38.147355,-12.360187],[-38.151442,-12.36195],[-38.154455,-12.357042],[-38.154899,-12.350525],[-38.156705,-12.34641],[-38.157077,-12.341227],[-38.161778,-12.33853],[-38.158155,-12.332667],[-38.162975,-12.327671],[-38.161439,-12.323672],[-38.158456,-12.321331],[-38.156985,-12.317879],[-38.153885,-12.319247],[-38.157774,-12.314256],[-38.15829,-12.311782],[-38.154778,-12.308064],[-38.150428,-12.308316],[-38.150071,-12.306895],[-38.153809,-12.304142],[-38.155911,-12.304769],[-38.158266,-12.301494],[-38.148051,-12.294823],[-38.14536,-12.294992],[-38.142579,-12.299434],[-38.137234,-12.296945],[-38.137166,-12.292766],[-38.138893,-12.290078],[-38.143766,-12.290666],[-38.144896,-12.285805],[-38.153578,-12.282711],[-38.161972,-12.281616],[-38.164975,-12.276052],[-38.160935,-12.270763],[-38.165118,-12.266189],[-38.16973,-12.262681],[-38.172317,-12.263519],[-38.174166,-12.261198],[-38.211748,-12.268826],[-38.272868,-12.278343],[-38.276651,-12.281137],[-38.274796,-12.291869],[-38.272409,-12.295667],[-38.273413,-12.299078],[-38.277815,-12.303712],[-38.272741,-12.31372],[-38.272853,-12.323284],[-38.275552,-12.322451],[-38.280202,-12.330015],[-38.281002,-12.338451],[-38.283077,-12.342414],[-38.285751,-12.343845],[-38.294759,-12.345997],[-38.305498,-12.342258],[-38.309279,-12.343681],[-38.314489,-12.339606],[-38.313854,-12.337581],[-38.354544,-12.37833],[-38.389949,-12.402858],[-38.380108,-12.406117],[-38.375314,-12.408338],[-38.377145,-12.410898],[-38.377646,-12.415984],[-38.382197,-12.418072],[-38.388272,-12.423043],[-38.389315,-12.428039],[-38.384341,-12.433542],[-38.37872,-12.437227],[-38.374932,-12.434908],[-38.370429,-12.438276],[-38.368446,-12.444178],[-38.364832,-12.443665],[-38.363453,-12.447006],[-38.337452,-12.451145],[-38.317274,-12.434845],[-38.314715,-12.440995]]]},"properties":{"cd_mun":"2925204","nm_mun":"Pojuca","area_km2":314.931}},
{"type":"Feature","geometry":{"type":"Polygon","coordinates":[[[-40.443145,-11.360228],[-40.442081,-11.358437],[-40.413423,-11.364173],[-40.394128,-11.384278],[-40.315808,-11.348461],[-40.317761,-11.345615],[-40.316927,-11.342547],[-40.318537,-11.336679],[-40.318274,-11.333741],[-40.272832,-11.337001],[-40.20952,-11.330848],[-40.188198,-11.338981],[-40.165219,-11.336121],[-40.159479,-11.329417],[-40.158452,-11.325045],[-40.155047,-11.32399],[-40.15226,-11.326097],[-40.143235,-11.324955],[-40.143022,-11.322261],[-40.139875,-11.318912],[-40.133743,-11.317737],[-40.132537,-11.316333],[-40.126717,-11.315675],[-40.120768,-11.308433],[-40.116194,-11.307386],[-40.108506,-11.303403],[-40.104374,-11.299887],[-40.100459,-11.294586],[-40.096378,-11.283388],[-40.097069,-11.280325],[-40.095272,-11.276115],[-40.096341,-11.273776],[-40.095603,-11.267143],[-40.088576,-11.256888],[-40.086366,-11.256267],[-40.083999,-11.252094],[-40.109991,-11.245607],[-40.112309,-11.241288],[-40.143959,-11.188514],[-40.144828,-11.181931],[-40.149513,-11.186754],[-40.160446,-11.182696],[-40.162157,-11.184089],[-40.16363,-11.191058],[-40.166251,-11.189062],[-40.170032,-11.188586],[-40.17142,-11.18625],[-40.176121,-11.187937],[-40.180829,-11.187221],[-40.184558,-11.188144],[-40.195583,-11.187309],[-40.201782,-11.182042],[-40.205525,-11.176803],[-40.20733,-11.178718],[-40.20805,-11.184114],[-40.212985,-11.184039],[-40.219042,-11.186557],[-40.221081,-11.183332],[-40.224292,-11.182562],[-40.22537,-11.187979],[-40.228302,-11.190961],[-40.259585,-11.192335],[-40.260181,-11.195632],[-40.262759,-11.197327],[-40.26684,-11.196547],[-40.269508,-11.20061],[-40.274455,-11.200998],[-40.279718,-11.204204],[-40.280294,-11.203122],[-40.288209,-11.204867],[-40.289722,-11.202884],[-40.294259,-11.201006],[-40.297061,-11.203095],[-40.302275,-11.202882],[-40.307023,-11.210401],[-40.313605,-11.208166],[-40.318219,-11.210849],[-40.31373,-11.214509],[-40.314186,-11.217065],[-40.318028,-11.217913],[-40.324152,-11.216966],[-40.332626,-11.220754],[-40.335251,-11.220374],[-40.336885,-11.223088],[-40.339396,-11.22225],[-40.345313,-11.228789],[-40.349549,-11.224932],[-40.354987,-11.223234],[-40.354439,-11.220288],[-40.359316,-11.216255],[-40.360671,-11.213405],[-40.364476,-11.211921],[-40.370051,-11.20673],[-40.370038,-11.210101],[-40.372663,-11.213491],[-40.380689,-11.21305],[-40.382761,-11.209877],[-40.387496,-11.210719],[-40.390722,-11.215283],[-40.393158,-11.214427],[-40.395503,-11.217707],[-40.395011,-11.223999],[-40.402997,-11.219162],[-40.411576,-11.217154],[-40.417278,-11.206074],[-40.42012,-11.204552],[-40.422536,-11.207041],[-40.426862,-11.207995],[-40.431697,-11.206244],[-40.4322,-11.202655],[-40.440525,-11.201851],[-40.442854,-11.197974],[-40.442616,-11.195199],[-40.4522,-11.189632],[-40.481727,-11.049399],[-40.529308,-11.015518],[-40.53544,-11.021798],[-40.548204,-11.018999],[-40.584619,-10.990327],[-40.687899,-10.941936],[-40.692418,-10.947441],[-40.704284,-10.952755],[-40.711951,-10.953292],[-40.71595,-10.952406],[-40.720851,-10.948467],[-40.72234,-10.943782],[-40.721291,-10.936959],[-40.719989,-10.934556],[-40.711351,-10.927914],[-40.709962,-10.922142],[-40.706178,-10.91862],[-40.708066,-10.91679],[-40.718046,-10.911902],[-40.719649,-10.910472],[-40.724607,-10.902325],[-40.726635,-10.900235],[-40.737339,-10.893133],[-40.744789,-10.888866],[-40.754589,-10.885546],[-40.759387,-10.879834],[-40.760217,-10.874258],[-40.763619,-10.865939],[-40.76829,-10.858352],[-40.773787,-10.854398],[-40.786318,-10.853359],[-40.795206,-10.849101],[-40.801039,-10.843667],[-40.805146,-10.838129],[-40.810297,-10.834119],[-40.812366,-10.82433],[-40.816761,-10.819017],[-40.818408,-10.815597],[-40.818601,-10.808895],[-40.820182,-10.804616],[-40.824155,-10.800649],[-40.833096,-10.795413],[-40.835952,-10.791605],[-40.88979,-10.802453],[-40.930022,-10.775079],[-40.931193,-10.77981],[-40.928839,-10.786166],[-40.926429,-10.788861],[-40.925857,-10.797677],[-40.923179,-10.800414],[-40.920049,-10.808517],[-40.914581,-10.811364],[-40.908289,-10.816363],[-40.907852,-10.822813],[-40.908537,-10.826777],[-40.906567,-10.830636],[-40.905539,-10.836109],[-40.907761,-10.842016],[-40.906345,-10.84453],[-40.903229,-10.856952],[-40.897699,-10.862197],[-40.892994,-10.868864],[-40.889073,-10.875946],[-40.888711,-10.884163],[-40.88709,-10.885972],[-40.883501,-10.895174],[-40.878137,-10.89678],[-40.878989,-10.900321],[-40.876249,-10.902555],[-40.879026,-10.905748],[-40.883095,-10.914335],[-40.883203,-10.919205],[-40.887113,-10.923807],[-40.891575,-10.931742],[-40.895658,-10.935383],[-40.902028,-10.938905],[-40.905025,-10.944094],[-40.903001,-10.947947],[-40.901556,-10.95418],[-40.902025,-10.959158],[-40.898751,-10.964858],[-40.899429,-10.96807],[-40.898248,-10.972523],[-40.901227,-10.975753],[-40.911741,-10.978274],[-40.916553,-10.983393],[-40.91767,-10.985972],[-40.92457,-10.991343],[-40.924181,-10.992016],[-40.916286,-11.023413],[-40.800668,-11.112699],[-40.725866,-11.246303],[-40.685964,-11.21174],[-40.612541,-11.275392],[-40.606512,-11.27746],[-40.605013,-11.282267],[-40.600764,-11.288172],[-40.591954,-11.294734],[-40.585506,-11.305158],[-40.582074,-11.308437],[-40.569994,-11.310112],[-40.564324,-11.309843],[-40.560482,-11.312362],[-40.549528,-11.309296],[-40.546021,-11.304422],[-40.506634,-11.371678],[-40.504,-11.372333],[-40.494905,-11.372057],[-40.490103,-11.374236],[-40.485583,-11.379859],[-40.482587,-11.386015],[-40.476333,-11.386011],[-40.46744,-11.389145],[-40.460743,-11.388056],[-40.456093,-11.382673],[-40.455001,-11.37683],[-40.452296,-11.369065],[-40.445371,-11.363159],[-40.443145,-11.360228]]]},"properties":{"cd_mun":"2917508","nm_mun":"Jacobina","area_km2":2192.906}},
{"type":"Feature","geometry":{"type":"Polygon","coordinates":[[[-40.231181,-10.370979],[-40.209856,-10.323675],[-40.20413,-10.332479],[-40.200658,-10.342881],[-40.194144,-10.345436],[-40.189539,-10.344923],[-40.185166,-10.346864],[-40.182075,-10.349966],[-40.180259,-10.354559],[-40.177485,-10.356891],[-40.171263,-10.35812],[-40.135973,-10.323921],[-40.128474,-10.334552],[-40.12437,-10.343763],[-40.121529,-10.341732],[-40.119015,-10.343397],[-40.092648,-10.328683],[-40.057813,-10.323127],[-40.027268,-10.318254],[-40.022844,-10.302296],[-40.057362,-10.274661],[-40.034331,-10.246298],[-39.998963,-10.219922],[-39.986336,-10.178927],[-39.977796,-10.178072],[-39.974599,-10.173239],[-39.96404,-10.166919],[-39.964115,-10.159855],[-39.963148,-10.156955],[-39.955341,-10.148924],[-39.950359,-10.145132],[-39.94612,-10.143199],[-39.936528,-10.140224],[-39.927457,-10.140373],[-39.922772,-10.139183],[-39.915634,-10.139778],[-39.909685,-10.138812],[-39.901429,-10.138887],[-39.899913,-10.139703],[-39.868531,-10.131823],[-39.866996,-10.123173],[-39.868559,-10.113279],[-39.861646,-10.101394],[-39.859275,-10.094597],[-39.858194,-10.088781],[-39.849642,-10.084198],[-39.847209,-10.077216],[-39.839274,-10.0751],[-39.838534,-10.073831],[-39.837899,-10.059231],[-39.839166,-10.05754],[-39.8434,-10.057327],[-39.843625,-10.052449],[-39.840836,-10.045477],[-39.8368,-10.042175],[-39.831003,-10.039386],[-39.827334,-10.035497],[-39.828735,-10.024712],[-39.826705,-10.021257],[-39.825654,-10.015322],[-39.826544,-10.010958],[-39.821732,-10.006942],[-39.816153,-10.005134],[-39.811635,-10.005213],[-39.807353,-9.999556],[-39.810378,-9.995745],[-39.811091,-9.990813],[-39.810849,-9.982112],[-39.804288,-9.976768],[-39.79819,-9.979511],[-39.800359,-9.971582],[-39.799377,-9.96671],[-39.802559,-9.957085],[-39.80751,-9.950995],[-39.807748,-9.948488],[-39.811095,-9.947061],[-39.812181,-9.94435],[-39.807405,-9.939845],[-39.805373,-9.940004],[-39.801031,-9.944953],[-39.793854,-9.939156],[-39.78859,-9.939407],[-39.78721,-9.942697],[-39.78367,-9.942008],[-39.781288,-9.94793],[-39.780693,-9.957864],[-39.777277,-9.959588],[-39.776431,-9.962878],[-39.771468,-9.968116],[-39.767111,-9.97027],[-39.765468,-9.97026],[-39.758061,-9.963833],[-39.755371,-9.957466],[-39.75023,-9.953672],[-39.748944,-9.951101],[-39.749801,-9.946388],[-39.747108,-9.935126],[-39.743436,-9.927721],[-39.742824,-9.917867],[-39.739397,-9.908074],[-39.738295,-9.901096],[-39.739397,-9.897363],[-39.743419,-9.890158],[-39.744997,-9.884818],[-39.747667,-9.881177],[-39.756831,-9.874441],[-39.76029,-9.867826],[-39.767329,-9.866977],[-39.778192,-9.870921],[-39.780316,-9.870921],[-39.782528,-9.866604],[-39.782258,-9.862304],[-39.787113,-9.852412],[-39.793497,-9.849666],[-39.795765,-9.84381],[-39.823288,-9.824697],[-39.837773,-9.828346],[-39.840022,-9.815377],[-39.844331,-9.810923],[-39.852542,-9.807088],[-39.86238,-9.791935],[-39.862181,-9.788245],[-39.863606,-9.781286],[-39.868222,-9.774163],[-39.873469,-9.769027],[-39.873429,-9.764234],[-39.878553,-9.756731],[-39.880392,-9.749587],[-39.882341,-9.745887],[-39.887458,-9.744002],[-39.893391,-9.740468],[-39.897959,-9.740657],[-39.898908,-9.744698],[-39.897447,-9.752875],[-39.902159,-9.7643],[-39.900926,-9.768955],[-39.900921,-9.774072],[-39.902908,-9.781674],[-39.912201,-9.78797],[-39.91685,-9.78851],[-39.919177,-9.790718],[-39.929158,-9.79228],[-39.932614,-9.79157],[-39.941048,-9.794245],[-39.947818,-9.79452],[-39.95595,-9.798305],[-39.981882,-9.804641],[-40.056426,-9.835622],[-40.110044,-9.858201],[-40.182442,-9.887301],[-40.225958,-9.921343],[-40.28607,-9.945795],[-40.316387,-9.907901],[-40.316577,-9.911369],[-40.31437,-9.916809],[-40.313386,-9.927435],[-40.316739,-9.939047],[-40.320882,-9.950032],[-40.326173,-9.954173],[-40.329038,-9.959098],[-40.327104,-9.964512],[-40.319306,-9.975243],[-40.31893,-9.981],[-40.320263,-9.988105],[-40.325695,-9.997134],[-40.325493,-10.002442],[-40.32845,-10.01362],[-40.334219,-10.023016],[-40.340927,-10.031506],[-40.346296,-10.0358],[-40.346624,-10.038393],[-40.35148,-10.039048],[-40.35648,-10.043729],[-40.365519,-10.048381],[-40.374839,-10.055533],[-40.383513,-10.058658],[-40.388783,-10.06215],[-40.389169,-10.06465],[-40.394328,-10.072065],[-40.394238,-10.085687],[-40.40317,-10.089478],[-40.411187,-10.094976],[-40.41436,-10.099045],[-40.417206,-10.108499],[-40.416523,-10.112584],[-40.406731,-10.118271],[-40.403069,-10.122629],[-40.397991,-10.124302],[-40.39152,-10.127716],[-40.384523,-10.129803],[-40.379907,-10.13633],[-40.376695,-10.139143],[-40.370897,-10.140791],[-40.366807,-10.140395],[-40.361531,-10.13554],[-40.363256,-10.129334],[-40.361411,-10.127027],[-40.355855,-10.123421],[-40.357033,-10.117457],[-40.351005,-10.113056],[-40.339254,-10.115547],[-40.33427,-10.119864],[-40.328444,-10.12336],[-40.312198,-10.123691],[-40.304017,-10.127425],[-40.29925,-10.128398],[-40.288262,-10.13525],[-40.286965,-10.138697],[-40.281247,-10.142266],[-40.279381,-10.147619],[-40.281838,-10.151153],[-40.275698,-10.159526],[-40.276705,-10.167328],[-40.273662,-10.168627],[-40.269811,-10.17414],[-40.267946,-10.181683],[-40.264619,-10.18286],[-40.257848,-10.191172],[-40.253509,-10.193768],[-40.247304,-10.203744],[-40.247304,-10.206907],[-40.249291,-10.209624],[-40.249048,-10.218748],[-40.251324,-10.220707],[-40.252174,-10.224671],[-40.255356,-10.227552],[-40.241262,-10.242173],[-40.243398,-10.249211],[-40.246577,-10.252101],[-40.24499,-10.25873],[-40.247707,-10.260366],[-40.240258,-10.267612],[-40.237741,-10.272467],[-40.243201,-10.279186],[-40.238094,-10.286104],[-40.232889,-10.29126],[-40.231581,-10.294581],[-40.230952,-10.301021],[-40.228361,-10.302933],[-40.227304,-10.310279],[-40.229996,-10.314858],[-40.23143,-10.321123],[-40.235355,-10.326682],[-40.234197,-10.333853],[-40.234474,-10.33828],[-40.236764,-10.342608],[-40.236084,-10.351815],[-40.237061,-10.355389],[-40.23294,-10.360545],[-40.233065,-10.363992],[-40.231181,-10.370979]]]},"properties":{"cd_mun":"2917706","nm_mun":"Jaguarari","area_km2":2466.009}},
{"type":"Feature","geometry":{"type":"Polygon","coordinates":[[[-40.057813,-10.323127],[-40.056124,-10.332452],[-40.05678,-10.335879],[-40.05563,-10.339849],[-40.049697,-10.346234],[-40.050118,-10.35606],[-40.048197,-10.357446],[-40.049159,-10.365215],[-40.047089,-10.368616],[-40.048543,-10.373694],[-40.047358,-10.375765],[-40.044797,-10.375005],[-40.03743,-10.375447],[-40.036029,-10.380444],[-40.030641,-10.383735],[-40.02588,-10.389304],[-40.021203,-10.392247],[-40.018528,-10.396588],[-40.017135,-10.402566],[-40.018598,-10.408866],[-40.021474,-10.410835],[-40.023164,-10.414149],[-40.02424,-10.423272],[-40.019223,-10.424148],[-40.014368,-10.430649],[-40.013807,-10.436912],[-40.01733,-10.439038],[-40.022559,-10.439969],[-40.028961,-10.446234],[-40.026716,-10.453601],[-40.023941,-10.452136],[-40.020133,-10.455006],[-40.020852,-10.456594],[-40.015874,-10.461422],[-40.008959,-10.461592],[-40.005751,-10.462785],[-40.005511,-10.466113],[-40.008302,-10.469131],[-40.005133,-10.4725],[-40.008121,-10.476288],[-40.007505,-10.479306],[-40.0115,-10.484883],[-40.010791,-10.488443],[-40.002788,-10.492078],[-40.00197,-10.494428],[-39.99378,-10.495496],[-39.990686,-10.500446],[-39.984326,-10.502073],[-39.981296,-10.505561],[-39.978235,-10.506216],[-39.973091,-10.510156],[-39.971894,-10.513596],[-39.968659,-10.515917],[-39.967444,-10.523418],[-39.964099,-10.524837],[-39.961234,-10.530482],[-39.956411,-10.533003],[-39.955221,-10.536204],[-39.952364,-10.535488],[-39.949675,-10.539673],[-39.948907,-10.543363],[-39.950161,-10.546692],[-39.94621,-10.551206],[-39.93908,-10.554808],[-39.937298,-10.552104],[-39.931795,-10.553325],[-39.934037,-10.556667],[-39.932935,-10.563013],[-39.926877,-10.561993],[-39.9249,-10.558479],[-39.920947,-10.558914],[-39.922288,-10.551838],[-39.925378,-10.549977],[-39.92333,-10.543636],[-39.929602,-10.540027],[-39.928481,-10.538684],[-39.930419,-10.535662],[-39.926614,-10.524119],[-39.927996,-10.520304],[-39.926098,-10.516074],[-39.92702,-10.514335],[-39.924559,-10.509587],[-39.924627,-10.501945],[-39.922594,-10.495346],[-39.912777,-10.502389],[-39.912003,-10.507148],[-39.90778,-10.505958],[-39.901831,-10.494359],[-39.902248,-10.485436],[-39.897429,-10.479071],[-39.892505,-10.477491],[-39.866401,-10.464307],[-39.847868,-10.458193],[-39.836414,-10.44788],[-39.834155,-10.453726],[-39.829236,-10.454005],[-39.825047,-10.458158],[-39.820404,-10.459345],[-39.814787,-10.46211],[-39.81421,-10.459937],[-39.808696,-10.461704],[-39.806687,-10.459868],[-39.802774,-10.459722],[-39.802364,-10.452926],[-39.805412,-10.448146],[-39.80579,-10.437063],[-39.80374,-10.426736],[-39.799985,-10.422367],[-39.795029,-10.422156],[-39.791087,-10.419928],[-39.787748,-10.420682],[-39.786909,-10.429913],[-39.752196,-10.433369],[-39.74966,-10.434649],[-39.751525,-10.438742],[-39.745129,-10.437902],[-39.74176,-10.431513],[-39.739137,-10.428509],[-39.73843,-10.423202],[-39.739215,-10.417992],[-39.73497,-10.41488],[-39.731333,-10.410106],[-39.731611,-10.405794],[-39.733503,-10.39997],[-39.735948,-10.396791],[-39.736859,-10.392057],[-39.735336,-10.38895],[-39.73631,-10.379101],[-39.737448,-10.376312],[-39.735752,-10.370486],[-39.739311,-10.363371],[-39.737475,-10.358941],[-39.739572,-10.35397],[-39.739317,-10.349046],[-39.737329,-10.347094],[-39.737814,-10.343146],[-39.73534,-10.336881],[-39.727246,-10.336102],[-39.722998,-10.334029],[-39.722022,-10.329419],[-39.72007,-10.327886],[-39.719496,-10.322678],[-39.713968,-10.319093],[-39.715617,-10.312881],[-39.71378,-10.309379],[-39.71665,-10.277952],[-39.72127,-10.27055],[-39.721707,-10.266996],[-39.744251,-10.242782],[-39.741204,-10.23852],[-39.737422,-10.228827],[-39.734351,-10.206915],[-39.736273,-10.198107],[-39.734333,-10.183963],[-39.732366,-10.178988],[-39.731601,-10.172842],[-39.731469,-10.159898],[-39.730367,-10.155312],[-39.729213,-10.120298],[-39.728657,-10.115602],[-39.733527,-10.112767],[-39.735858,-10.098072],[-39.734295,-10.089225],[-39.741666,-10.086373],[-39.745436,-10.082395],[-39.752595,-10.076612],[-39.758208,-10.073589],[-39.759892,-10.065759],[-39.75658,-10.056902],[-39.760483,-10.049199],[-39.762229,-10.042178],[-39.765041,-10.0409],[-39.765541,-10.032048],[-39.762971,-10.02698],[-39.762043,-10.015202],[-39.763827,-10.011347],[-39.767611,-10.008063],[-39.769038,-10.000996],[-39.76734,-9.99711],[-39.761001,-9.994198],[-39.759803,-9.991747],[-39.760829,-9.981977],[-39.764941,-9.978151],[-39.767111,-9.97027],[-39.771468,-9.968116],[-39.776431,-9.962878],[-39.777277,-9.959588],[-39.780693,-9.957864],[-39.781288,-9.94793],[-39.78367,-9.942008],[-39.78721,-9.942697],[-39.78859,-9.939407],[-39.793854,-9.939156],[-39.801031,-9.944953],[-39.805373,-9.940004],[-39.807405,-9.939845],[-39.812181,-9.94435],[-39.811095,-9.947061],[-39.807748,-9.948488],[-39.80751,-9.950995],[-39.802559,-9.957085],[-39.799377,-9.96671],[-39.800359,-9.971582],[-39.79819,-9.979511],[-39.804288,-9.976768],[-39.810849,-9.982112],[-39.811091,-9.990813],[-39.810378,-9.995745],[-39.807353,-9.999556],[-39.811635,-10.005213],[-39.816153,-10.005134],[-39.821732,-10.006942],[-39.826544,-10.010958],[-39.825654,-10.015322],[-39.826705,-10.021257],[-39.828735,-10.024712],[-39.827334,-10.035497],[-39.831003,-10.039386],[-39.8368,-10.042175],[-39.840836,-10.045477],[-39.843625,-10.052449],[-39.8434,-10.057327],[-39.839166,-10.05754],[-39.837899,-10.059231],[-39.838534,-10.073831],[-39.839274,-10.0751],[-39.847209,-10.077216],[-39.849642,-10.084198],[-39.858194,-10.088781],[-39.859275,-10.094597],[-39.861646,-10.101394],[-39.868559,-10.113279],[-39.866996,-10.123173],[-39.868531,-10.131823],[-39.899913,-10.139703],[-39.901429,-10.138887],[-39.909685,-10.138812],[-39.915634,-10.139778],[-39.922772,-10.139183],[-39.927457,-10.140373],[-39.936528,-10.140224],[-39.94612,-10.143199],[-39.950359,-10.145132],[-39.955341,-10.148924],[-39.963148,-10.156955],[-39.964115,-10.159855],[-39.96404,-10.166919],[-39.974599,-10.173239],[-39.977796,-10.178072],[-39.986336,-10.178927],[-39.998963,-10.219922],[-40.034331,-10.246298],[-40.057362,-10.274661],[-40.022844,-10.302296],[-40.027268,-10.318254],[-40.057813,-10.323127]]]},"properties":{"cd_mun":"2901353","nm_mun":"Andorinha","area_km2":1362.386}},
{"type":"Feature","geometry":{"type":"Polygon","coordinates":[[[-39.921764,-14.364027],[-39.918821,-14.363026],[-39.912824,-14.363514],[-39.910568,-14.365169],[-39.906827,-14.364507],[-39.902954,-14.368127],[-39.901874,-14.371514],[-39.895557,-14.377457],[-39.890699,-14.380554],[-39.877607,-14.380616],[-39.876791,-14.384446],[-39.861208,-14.386297],[-39.854577,-14.382964],[-39.853014,-14.376848],[-39.849644,-14.374843],[-39.842821,-14.376076],[-39.838253,-14.378685],[-39.835855,-14.38409],[-39.825099,-14.384088],[-39.822548,-14.379909],[-39.821842,-14.38209],[-39.818824,-14.382812],[-39.818314,-14.378771],[-39.814745,-14.374382],[-39.811575,-14.372587],[-39.813064,-14.36933],[-39.811434,-14.366573],[-39.808311,-14.36592],[-39.804193,-14.367282],[-39.801194,-14.362163],[-39.798854,-14.360207],[-39.794706,-14.359646],[-39.794343,-14.355568],[-39.790119,-14.350616],[-39.782734,-14.35078],[-39.780894,-14.349741],[-39.776294,-14.352175],[-39.769197,-14.358179],[-39.764408,-14.359505],[-39.752443,-14.354718],[-39.749942,-14.351803],[-39.740882,-14.347901],[-39.74325,-14.356145],[-39.742333,-14.363076],[-39.745857,-14.369167],[-39.741529,-14.371982],[-39.73122,-14.372346],[-39.725043,-14.375004],[-39.719903,-14.375459],[-39.719388,-14.371542],[-39.722648,-14.371196],[-39.727114,-14.367957],[-39.727261,-14.364807],[-39.725161,-14.36251],[-39.71835,-14.36122],[-39.71619,-14.363637],[-39.716148,-14.367739],[-39.714499,-14.369472],[-39.71156,-14.368732],[-39.706972,-14.36535],[-39.696547,-14.369364],[-39.688257,-14.295332],[-39.67278,-14.216713],[-39.665835,-14.184509],[-39.665615,-14.181575],[-39.670424,-14.178916],[-39.6772,-14.178661],[-39.689987,-14.176074],[-39.69414,-14.172322],[-39.695015,-14.169298],[-39.693485,-14.163433],[-39.695343,-14.158915],[-39.699876,-14.152694],[-39.709953,-14.148879],[-39.719411,-14.147085],[-39.72608,-14.147134],[-39.729961,-14.145145],[-39.733516,-14.141492],[-39.741637,-14.137383],[-39.749792,-14.136419],[-39.755147,-14.130436],[-39.759087,-14.12735],[-39.763298,-14.126515],[-39.77027,-14.123195],[-39.773051,-14.118424],[-39.773762,-14.1114],[-39.776682,-14.106235],[-39.786304,-14.106706],[-39.798925,-14.106205],[-39.806833,-14.105064],[-39.812037,-14.1021],[-39.815529,-14.103893],[-39.821675,-14.104131],[-39.824383,-14.109374],[-39.825203,-14.113626],[-39.82836,-14.113674],[-39.829452,-14.117497],[-39.832354,-14.120474],[-39.837499,-14.121493],[-39.83819,-14.124758],[-39.842716,-14.125058],[-39.843548,-14.129467],[-39.85194,-14.135272],[-39.851909,-14.137661],[-39.854857,-14.138361],[-39.85678,-14.143951],[-39.860605,-14.146141],[-39.861576,-14.145045],[-39.868453,-14.144269],[-39.867956,-14.140934],[-39.870463,-14.143007],[-39.874127,-14.140351],[-39.883211,-14.141927],[-39.884261,-14.139867],[-39.883157,-14.130234],[-39.885285,-14.127566],[-39.889243,-14.138728],[-39.895904,-14.149493],[-39.896268,-14.154169],[-39.900844,-14.159171],[-39.90015,-14.161219],[-39.902102,-14.16519],[-39.900312,-14.171233],[-39.902175,-14.173538],[-39.905366,-14.172237],[-39.908731,-14.174911],[-39.909469,-14.172443],[-39.914672,-14.169258],[-39.918388,-14.180234],[-39.917932,-14.183677],[-39.924478,-14.180359],[-39.928901,-14.179489],[-39.932095,-14.175772],[-39.933815,-14.176413],[-39.936045,-14.173534],[-39.93872,-14.175935],[-39.942734,-14.173157],[-39.945761,-14.173272],[-39.954366,-14.169883],[-39.959025,-14.167178],[-39.961119,-14.167267],[-39.974232,-14.162713],[-39.976715,-14.162708],[-39.975619,-14.165779],[-39.976917,-14.170506],[-39.979503,-14.172257],[-39.980792,-14.176308],[-39.981479,-14.184054],[-39.985625,-14.197664],[-39.987676,-14.199698],[-39.983039,-14.209322],[-39.984358,-14.220942],[-39.98869,-14.232764],[-39.992866,-14.246218],[-39.99324,-14.251607],[-39.997196,-14.25889],[-39.998748,-14.266968],[-40.002268,-14.270227],[-40.005466,-14.266179],[-40.00204,-14.281651],[-39.982326,-14.321681],[-39.958344,-14.353451],[-39.948332,-14.362948],[-39.946277,-14.362515],[-39.937653,-14.364065],[-39.933395,-14.367265],[-39.929873,-14.365762],[-39.921764,-14.364027]]]},"properties":{"cd_mun":"2915205","nm_mun":"Itagibá","area_km2":810.994}}
]}